1 50485U 21132S 26162.21347121 .00000053 00000+0 10143-3 0 9998 
2 50485 87.9170 336.6283 0001925 105.4704 254.6641 13.18686154221203 
1 50486U 21132T 26161.97740184 .00000046 00000+0 83652-4 0 9995 
2 50486 87.9163 336.6921 0002393 88.6002 271.5404 13.18684711220805 
1 50487U 21132U 26162.04653949 .00000043 00000+0 76044-4 0 9991 
2 50487 87.9167 336.6701 0001610 92.4623 267.6693 13.18685056220752 
1 50488U 21132V 26162.14977246 .00000363 00000+0 98949-3 0 9994 
2 50488 87.8896 22.2567 0002092 87.2771 272.8596 13.11416109214791 
1 50489U 21132W 26162.18647894 .00000030 00000+0 44541-4 0 9993 
2 50489 87.9165 336.6508 0001703 82.3881 277.7445 13.18684893220861 
1 50490U 21132X 26162.19154435 .00000361 00000+0 88240-3 0 9990 
2 50490 87.9157 336.6487 0001553 85.9298 274.2012 13.18684836220807 
1 50491U 21132Y 26162.17636848 .00000025 00000+0 31343-4 0 9992 
2 50491 87.9167 336.6332 0001852 85.7540 274.3804 13.18685206220833 
1 50492U 21132Z 26162.18479798 .00000036 00000+0 59454-4 0 9998 
2 50492 87.9159 336.6517 0002078 91.3298 268.8072 13.18685310220813 
1 50493U 21132AA 26162.19478625 .00000054 00000+0 10342-3 0 9990 
2 50493 87.9168 336.6486 0002128 91.9979 268.1397 13.18685455220876 
1 50494U 21132AB 26162.21328641 .00000033 00000+0 50766-4 0 9998 
2 50494 87.9165 336.6447 0002088 97.4921 262.6448 13.18665307220795 
1 50495U 21132AC 26162.17805167 .00000034 00000+0 53605-4 0 9993 
2 50495 87.9158 336.6552 0001633 93.2076 266.9243 13.18685880220782 
1 50496U 21132AD 26162.24718084 .00000013 00000+0 41900-6 0 9997 
2 50496 87.9163 336.6388 0001876 79.6004 280.5340 13.18684436220836 
1 50497U 21132AE 26162.20840413 .00000061 00000+0 12183-3 0 9997 
2 50497 87.9167 336.6444 0002017 101.3025 258.8334 13.18684683220855 
1 50498U 21132AF 26162.24296991 .00000026 00000+0 33669-4 0 9992 
2 50498 87.9167 336.6286 0002379 79.2159 280.9241 13.18688420220803 
1 50499U 21132AG 26162.20671838 .00000054 00000+0 10328-3 0 9993 
2 50499 87.9168 336.6245 0002074 90.4995 269.6375 13.18684531220828 
1 50500U 21132AH 26162.19323044 .00000002 00000+0 -27085-4 0 9990 
2 50500 87.9161 336.6521 0001728 91.8329 268.3001 13.18685167220796 
